{
  "type": "FeatureCollection",
  "features": [
    {
      "type": "Feature",
      "properties": {
        "norad_id": 54741,
        "name": "GALAXY 35 (G-35)",
        "group": "intelsat",
        "lat": -0.03127255712045247,
        "lon": -129.0785826665541,
        "alt_km": 35779.72867739981,
        "timestamp": "2025-12-17T15:50:09.445081+00:00",
        "meta_object_name": "GALAXY 35 (G-35)",
        "meta_object_id": "2022-170A",
        "meta_epoch": "2025-12-17T04:19:21.821952",
        "meta_mean_motion": 1.00269104,
        "meta_eccentricity": 0.00022634,
        "meta_inclination": 0.0174,
        "meta_ra_of_asc_node": 12.1275,
        "meta_arg_of_pericenter": 260.8442,
        "meta_mean_anomaly": 144.8125,
        "meta_ephemeris_type": 0,
        "meta_classification_type": "U",
        "meta_norad_cat_id": 54741,
        "meta_element_set_no": 999,
        "meta_rev_at_epoch": 1106,
        "meta_bstar": 0,
        "meta_mean_motion_dot": 0,
        "meta_mean_motion_ddot": 0,
        "tle_line1": "1 54741U 22170A   25351.18011368  .00000000  00000+0  00000+0 0  9995",
        "tle_line2": "2 54741   0.0174  12.1275 0002263 260.8442 144.8125  1.00269104 11068"
      },
      "geometry": {
        "type": "Point",
        "coordinates": [
          -129.0785826665541,
          -0.03127255712045247
        ]
      }
    },
    {
      "type": "Feature",
      "properties": {
        "norad_id": 54742,
        "name": "GALAXY 36 (G-36)",
        "group": "intelsat",
        "lat": -0.02098606753782216,
        "lon": -124.94210706656843,
        "alt_km": 35786.49449389873,
        "timestamp": "2025-12-17T15:50:09.445093+00:00",
        "meta_object_name": "GALAXY 36 (G-36)",
        "meta_object_id": "2022-170B",
        "meta_epoch": "2025-12-16T19:46:46.668000",
        "meta_mean_motion": 1.00271322,
        "meta_eccentricity": 3.209e-05,
        "meta_inclination": 0.0145,
        "meta_ra_of_asc_node": 272.7554,
        "meta_arg_of_pericenter": 62.371,
        "meta_mean_anomaly": 318.28,
        "meta_ephemeris_type": 0,
        "meta_classification_type": "U",
        "meta_norad_cat_id": 54742,
        "meta_element_set_no": 999,
        "meta_rev_at_epoch": 1094,
        "meta_bstar": 0,
        "meta_mean_motion_dot": -1.61e-06,
        "meta_mean_motion_ddot": 0,
        "tle_line1": "1 54742U 22170B   25350.82415125 -.00000161  00000+0  00000+0 0  9994",
        "tle_line2": "2 54742   0.0145 272.7554 0000320  62.3710 318.2800  1.00271322 10944"
      },
      "geometry": {
        "type": "Point",
        "coordinates": [
          -124.94210706656843,
          -0.02098606753782216
        ]
      }
    },
    {
      "type": "Feature",
      "properties": {
        "norad_id": 57493,
        "name": "GALAXY 37 (G-37)",
        "group": "intelsat",
        "lat": 0.005146302777378517,
        "lon": -162.9448774079192,
        "alt_km": 35783.22007482243,
        "timestamp": "2025-12-17T15:50:09.445104+00:00",
        "meta_object_name": "GALAXY 37 (G-37)",
        "meta_object_id": "2023-112A",
        "meta_epoch": "2025-12-15T23:03:25.663680",
        "meta_mean_motion": 1.00272925,
        "meta_eccentricity": 0.00019988,
        "meta_inclination": 0.0242,
        "meta_ra_of_asc_node": 56.2601,
        "meta_arg_of_pericenter": 214.3075,
        "meta_mean_anomaly": 33.1555,
        "meta_ephemeris_type": 0,
        "meta_classification_type": "U",
        "meta_norad_cat_id": 57493,
        "meta_element_set_no": 999,
        "meta_rev_at_epoch": 870,
        "meta_bstar": 0,
        "meta_mean_motion_dot": 7e-07,
        "meta_mean_motion_ddot": 0,
        "tle_line1": "1 57493U 23112A   25349.96071370  .00000070  00000+0  00000+0 0  9998",
        "tle_line2": "2 57493   0.0242  56.2601 0001998 214.3075  33.1555  1.00272925  8702"
      },
      "geometry": {
        "type": "Point",
        "coordinates": [
          -162.9448774079192,
          0.005146302777378517
        ]
      }
    }
  ]
}